QIANFAN-60              
1 62790U 25016F   25206.74370906  .00000139  00000+0  19636-3 0  9999
2 62790  88.9835 117.5452 0017036  34.3835 325.8415 13.50966248 28322
QIANFAN-61              
1 62791U 25016G   25206.75622277  .00000114  00000+0  15827-3 0  9993
2 62791  88.9902 117.6064 0016439  33.4056 326.8129 13.50955766 28347
QIANFAN-62              
1 62792U 25016H   25206.90828666  .00000137  00000+0  19301-3 0  9997
2 62792  88.9849 117.5351 0017834  32.8639 327.3617 13.50954772 28351
QIANFAN-63              
1 62793U 25016J   25206.92062702  .00000071  00000+0  91205-4 0  9992
2 62793  88.9855 117.4731 0017736  36.9521 323.2848 13.50951728 28399
QIANFAN-64              
1 62794U 25016K   25206.91239080  .00000124  00000+0  17349-3 0  9992
2 62794  88.9842 117.4727 0015439  32.0682 328.1405 13.50960464 28383
QIANFAN-65              
1 62795U 25016L   25206.89607282  .00000139  00000+0  19665-3 0  9992
2 62795  88.9838 117.5025 0015662  33.6762 326.5381 13.50958366 28366
QIANFAN-66              
1 62796U 25016M   25206.48034249  .00000138  00000+0  19463-3 0  9990
2 62796  88.9858 117.4877 0016700  30.3854 329.8262 13.50960475 28350
QIANFAN-67              
1 62797U 25016N   25206.92900069  .00000147  00000+0  20841-3 0  9994
2 62797  88.9848 117.4812 0016821  35.3779 324.8484 13.50962146 28385
QIANFAN-68              
1 62798U 25016P   25206.93303780  .00000146  00000+0  20736-3 0  9995
2 62798  88.9851 117.5239 0017401  33.6165 326.6087 13.50959571 28364
QIANFAN-69              
1 62799U 25016Q   25206.71488937  .00000136  00000+0  19244-3 0  9991
2 62799  88.9830 117.4428 0017612  35.0922 325.1385 13.50960408 28379
QIANFAN-70              
1 62800U 25016R   25206.87956325  .00000129  00000+0  18158-3 0  9997
2 62800  88.9851 117.5346 0016920  26.0957 334.1044 13.50958939 28350
QIANFAN-71              
1 62801U 25016S   25206.87552969  .00000129  00000+0  18173-3 0  9991
2 62801  88.9845 117.5232 0017597  37.8392 322.3993 13.50958817 28359
QIANFAN-72              
1 62802U 25016T   25206.87126454  .00000137  00000+0  19293-3 0  9991
2 62802  88.9835 117.5458 0021143  42.9165 317.3631 13.50960494 28342
QIANFAN-73              
1 63159U 25046A   25206.91893443  .00000106  00000+0  14550-3 0  9991
2 63159  88.9854 334.4266 0015844 161.7546 198.4176 13.50956782 28538
QIANFAN-74              
1 63160U 25046B   25206.90256081  .00000130  00000+0  18286-3 0  9990
2 63160  88.9854 334.3168 0001990  99.9961 260.1415 13.50961050 28593
QIANFAN-75              
1 63161U 25046C   25206.74206642  .00000111  00000+0  15349-3 0  9997
2 63161  88.9854 334.5649 0016914 165.5305 194.6334 13.50957591 28444
QIANFAN-76              
1 63162U 25046D   25206.81182512  .00000136  00000+0  19199-3 0  9999
2 63162  88.9854 334.5389 0014485 164.9233 195.2353 13.50953363 28463
QIANFAN-77              
1 63163U 25046E   25206.70439453  .00000332  00000+0  23237-3 0  9993
2 63163  88.9852 333.7045 0016019 151.2842 208.9220 13.96000292 28911
QIANFAN-78              
1 63164U 25046F   25206.92719205  .00000121  00000+0  16903-3 0  9992
2 63164  88.9853 334.3926 0015785 167.4704 192.6843 13.50956747 28558
QIANFAN-79              
1 63165U 25046G   25206.80779255  .00000135  00000+0  18984-3 0  9997
2 63165  88.9857 334.5069 0015506 166.0428 194.1155 13.50958924 28486
QIANFAN-80              
1 63166U 25046H   25206.89843330  .00000122  00000+0  16986-3 0  9999
2 63166  88.9855 334.2084 0014383 169.4158 190.7298 13.50959277 28659
QIANFAN-81              
1 63167U 25046J   25206.72968483  .00000106  00000+0  14533-3 0  9997
2 63167  88.9854 334.2942 0015705 159.3876 200.7912 13.50958192 28588
QIANFAN-82              
1 63168U 25046K   25206.91059458  .00000127  00000+0  17842-3 0  9991
2 63168  88.9854 334.3191 0013641 165.4669 194.6877 13.50959757 28591
QIANFAN-83              
1 63169U 25046L   25206.74232465  .00000162  00000+0  19456-3 0  9996
2 63169  88.9854 334.3867 0015093 159.6887 200.4874 13.61928272 28540
QIANFAN-84              
1 63170U 25046M   25206.71728034  .00000197  00000+0  28602-3 0  9998
2 63170  88.9854 334.4721 0016680 163.9553 196.2129 13.50960518 28499
QIANFAN-85              
1 63171U 25046N   25206.71319112  .00000122  00000+0  16961-3 0  9995
2 63171  88.9854 334.3448 0013995 165.1434 195.0131 13.50956036 28561
QIANFAN-86              
1 63172U 25046P   25206.72142269  .00000129  00000+0  18145-3 0  9997
2 63172  88.9856 334.2028 0011772 167.8009 192.3430 13.50956300 28640
QIANFAN-87              
1 63173U 25046Q   25206.91469397 -.00000071  00000+0 -12852-3 0  9990
2 63173  88.9848 334.3001 0012603 163.3206 196.8362 13.50953973 28600
QIANFAN-88              
1 63174U 25046R   25206.93136208  .00000120  00000+0  16658-3 0  9996
2 63174  88.9855 334.2493 0012778 170.7857 189.3531 13.50956514 28632
QIANFAN-89              
1 63175U 25046S   25206.74610744  .00000121  00000+0  16903-3 0  9992
2 63175  88.9854 334.4574 0017339 164.4909 195.6776 13.50961197 28500
QIANFAN-90              
1 63176U 25046T   25206.77489118  .00000135  00000+0  18987-3 0  9994
2 63176  88.9855 334.4265 0014353 161.4631 198.7045 13.50959667 28525
